IRIDIUM 155             
1 43573U 18061E   21268.94494334  .00000097  00000-0  27571-4 0  9999
2 43573  86.3954  57.6865 0001739 101.6250 258.5141 14.34217683166087
IRIDIUM 154             
1 43574U 18061F   21269.13521574  .00000100  00000-0  28518-4 0  9996
2 43574  86.3959  57.6583 0002216  85.7291 274.4158 14.34217732166156
IRIDIUM 163             
1 43575U 18061G   21268.69755961  .00000093  00000-0  26059-4 0  9995
2 43575  86.3955  57.8092 0002585  96.2772 263.8718 14.34217298166061
IRIDIUM 156             
1 43576U 18061H   21269.16056889  .00000099  00000-0  28277-4 0  9992
2 43576  86.3956  57.6208 0002221 101.1304 259.0141 14.34217621166117
IRIDIUM 164             
1 43577U 18061J   21269.14156116  .00000095  00000-0  26887-4 0  9996
2 43577  86.3958  57.6429 0002301  88.4431 271.7029 14.34217458166161
IRIDIUM 159             
1 43578U 18061K   21268.69124904  .00000087  00000-0  23870-4 0  9996
2 43578  86.3955  57.8042 0002219  87.7076 272.4374 14.34218853166067
IRIDIUM 180             
1 43922U 19002A   21268.96980282  .00000110  00000-0  32235-4 0  9996
2 43922  86.4025 354.5756 0002941  81.4522 278.7007 14.34218631141752
IRIDIUM 176             
1 43923U 19002B   21269.27451957  .00000290  00000-0  42046-4 0  9994
2 43923  86.6158 354.4825 0002381  93.3268 266.8221 14.72258421145466
IRIDIUM 168             
1 43924U 19002C   21268.47508433  .00000114  00000-0  33579-4 0  9994
2 43924  86.4028 354.8106 0002326  88.0742 272.0720 14.34216605141627
IRIDIUM 173             
1 43925U 19002D   21268.95078087  .00000115  00000-0  33880-4 0  9991
2 43925  86.4024 354.5712 0002342  90.5999 269.5465 14.34216848141686
IRIDIUM 169             
1 43926U 19002E   21269.06047609  .00000140  00000-0  39227-4 0  9990
2 43926  86.4273  26.0995 0002824 251.7546 108.3345 14.38606944142201
IRIDIUM 172             
1 43927U 19002F   21268.94443419  .00000113  00000-0  33157-4 0  9992
2 43927  86.4024 354.5765 0002400  88.8102 271.3369 14.34217976141684
IRIDIUM 175             
1 43928U 19002G   21268.99648910  .00000278  00000-0  40212-4 0  9993
2 43928  86.6159 354.4215 0002924  94.1287 266.0264 14.72255100145413
IRIDIUM 171             
1 43929U 19002H   21268.99517698  .00000142  00000-0  43774-4 0  9998
2 43929  86.4035 354.6699 0002264  88.0975 272.0480 14.34215832141684
IRIDIUM 170             
1 43930U 19002J   21269.28072126  .00000282  00000-0  40861-4 0  9994
2 43930  86.6158 354.4861 0002471  89.6593 270.4907 14.72253444145476
IRIDIUM 167             
1 43931U 19002K   21268.50044451  .00000115  00000-0  33888-4 0  9995
2 43931  86.4025 354.7689 0002712  82.6316 277.5188 14.34217149141614
